STARLINK-1119_new
1 14928C 20001Q   21326.10276919  .00007771  00000-0  52057-3 0  3267
2 14928  53.0523 188.2925 0002001  76.1846 128.7294 15.06395216    19
STARLINK-1119_old
1 24928C 20001Q   21325.10921352  .00007718  00000-0  51708-3 0  3256
2 24928  53.0529 192.7527 0001964  74.1507 139.6915 15.06390834    14
